      2.10          N: GNSS NAV DATA                        RINEX VERSION / TYPE
fic2rin                                 05/27/2024 00:59:02 PGM / RUN BY / DATE
                                                            END OF HEADER
2  24  5 26  2  0  0.0 -.429573468864D-03  .682121026330D-11  .000000000000D+00
     .970000000000D+02  .965625000000D+01  .445054252582D-08  .263582099527D+01
     .361353158951D-06  .159766862635D-01 -.379979610443D-06  .515370464134D+04
     .720000000000D+04  .309199094772D-06  .193944330171D+01  .353902578354D-07
     .967169260379D+00  .388125000000D+03 -.118451717331D+01 -.811426656320D-08
    -.239295681911D-10  .100000000000D+01  .231600000000D+04  .000000000000D+00
     .240000000000D+01  .000000000000D+00 -.176951289177D-07  .970000000000D+02
     .000000000000D+00  .400000000000D+01
1  24  5 26  2  0  0.0  .269298441708D-03 -.534328137292D-11  .000000000000D+00
     .530000000000D+02  .345000000000D+02  .553808782644D-08 -.243075052869D+01
     .181235373020D-05  .133910471341D-01  .100880861282D-04  .515376336098D+04
     .720000000000D+04  .521540641785D-07 -.548622265348D-01 -.894069671631D-07
     .954893240371D+00  .181281250000D+03  .103069749470D+01 -.750316967999D-08
    -.509664086698D-09  .100000000000D+01  .231600000000D+04  .000000000000D+00
     .340000000000D+01  .630000000000D+02 -.195577740669D-07  .530000000000D+02
     .000000000000D+00  .400000000000D+01
5  24  5 26  2  0  0.0 -.174026936293D-03 -.136424205266D-11  .000000000000D+00
     .700000000000D+01 -.157656250000D+03  .417695970142D-08  .277014527457D+01
    -.819563865662D-05  .586343684699D-02  .698678195477D-05  .515362456703D+04
     .720000000000D+04  .353902578354D-07  .302271426274D+01 -.838190317154D-07
     .971719694860D+00  .252500000000D+03  .125323302925D+01 -.777460955798D-08
    -.610739725475D-10  .100000000000D+01  .231600000000D+04  .000000000000D+00
     .240000000000D+01  .000000000000D+00 -.107102096081D-07  .700000000000D+01
     .000000000000D+00  .400000000000D+01
4  24  5 26  2  0  0.0  .369207933545D-03  .829913915368D-11  .000000000000D+00
     .350000000000D+02 -.162812500000D+02  .454911806046D-08  .206794627742D+01
    -.774860382080D-06  .283900171053D-02  .931508839130D-05  .515374445534D+04
     .720000000000D+04 -.596046447754D-07 -.213100447616D+01  .484287738800D-07
     .964700249649D+00  .204875000000D+03 -.294384952381D+01 -.780318217672D-08
     .536450916763D-09  .100000000000D+01  .231600000000D+04  .000000000000D+00
     .240000000000D+01  .000000000000D+00 -.465661287308D-08  .803000000000D+03
     .000000000000D+00  .400000000000D+01
24 24  5 26  4  0  0.0 -.472851097584D-03 -.318323145621D-11  .000000000000D+00
     .680000000000D+02 -.243750000000D+01  .567595071184D-08  .161641892220D+01
    -.303611159325D-06  .152960048290D-01  .565499067307D-05  .515370265770D+04
     .144000000000D+05 -.391155481339D-06 -.121491175850D+01 -.894069671631D-07
     .933554065428D+00  .260500000000D+03  .979066134446D+00 -.845963809217D-08
    -.221437795202D-10  .100000000000D+01  .231600000000D+04  .000000000000D+00
     .240000000000D+01  .000000000000D+00  .232830643654D-08  .680000000000D+02
     .720000000000D+04  .400000000000D+01
13 24  5 26  4  0  0.0  .653300900012D-03  .284217094304D-11  .000000000000D+00
     .700000000000D+02 -.135000000000D+02  .436803908922D-08 -.310224806287D+01
    -.830739736557D-06  .804879597854D-02  .915117561817D-05  .515365383911D+04
     .144000000000D+05 -.130385160446D-07 -.202466717437D+01 -.143423676491D-06
     .971166989780D+00  .207468750000D+03  .923420354359D+00 -.757424406910D-08
     .624311719375D-09  .100000000000D+01  .231600000000D+04  .000000000000D+00
     .240000000000D+01  .000000000000D+00 -.111758708954D-07  .700000000000D+02
     .720000000000D+04  .400000000000D+01
27 24  5 26  4  0  0.0 -.256691128016D-04 -.159161572810D-11  .000000000000D+00
     .620000000000D+02  .147187500000D+03  .403409660774D-08 -.276441796492D+01
     .756792724133D-05  .125465291785D-01  .679679214954D-05  .515368791199D+04
     .144000000000D+05  .409781932831D-07  .968061388785D+00 -.949949026108D-07
     .962251263342D+00  .248437500000D+03  .793507915601D+00 -.770317801114D-08
     .167149819604D-09  .100000000000D+01  .231600000000D+04  .000000000000D+00
     .240000000000D+01  .000000000000D+00  .186264514923D-08  .620000000000D+02
     .720000000000D+04  .400000000000D+01
14 24  5 26  4  0  0.0  .409841537476D-03  .920863385545D-11  .000000000000D+00
     .980000000000D+02  .321562500000D+02  .467126600555D-08 -.150187962537D+00
     .143796205521D-05  .449248135556D-02  .947713851929D-05  .515370108223D+04
     .144000000000D+05  .596046447754D-07 -.468119083039D-01  .856816768646D-07
     .946181380344D+00  .189281250000D+03 -.290684805094D+01 -.799283293357D-08
    -.677528221770D-09  .100000000000D+01  .231600000000D+04  .000000000000D+00
     .240000000000D+01  .000000000000D+00 -.791624188423D-08  .354000000000D+03
     .720000000000D+04  .400000000000D+01
7  24  5 26  4  0  0.0 -.136790797114D-03 -.795807864051D-11  .000000000000D+00
     .870000000000D+02  .812500000000D+00  .536165190575D-08  .600846647240D+00
     .329688191414D-06  .185431911377D-01  .572949647903D-05  .515362689400D+04
     .144000000000D+05 -.171363353729D-06 -.111785945293D+01  .124797224998D-06
     .949915149585D+00  .267343750000D+03 -.212159243135D+01 -.856999983204D-08
    -.259653672761D-09  .100000000000D+01  .231600000000D+04  .000000000000D+00
     .240000000000D+01  .630000000000D+02 -.111758708954D-07  .870000000000D+02
     .720000000000D+04  .400000000000D+01
31 24  5 26  4  0  0.0 -.227694865316D-03  .113686837722D-12  .000000000000D+00
     .780000000000D+02 -.343750000000D+01  .515807199726D-08 -.281536809835D+00
    -.102445483208D-06  .104785618605D-01  .554136931896D-05  .515371567345D+04
     .144000000000D+05  .242143869400D-07 -.109635951353D+01  .119209289551D-06
     .953906758137D+00  .267406250000D+03  .678040722021D+00 -.828820237975D-08
    -.158578033983D-09  .100000000000D+01  .231600000000D+04  .000000000000D+00
     .240000000000D+01  .000000000000D+00 -.135041773319D-07  .780000000000D+02
     .720000000000D+04  .400000000000D+01
16 24  5 26  4  0  0.0 -.281795859337D-03  .101181285572D-10  .000000000000D+00
     .510000000000D+02  .456250000000D+02  .416481633846D-08 -.192417988888D+01
     .231340527534D-05  .139130447060D-01  .100545585155D-04  .515378304482D+04
     .144000000000D+05  .109896063805D-06  .154372148162D-01 -.158324837685D-06
     .962357471194D+00  .185968750000D+03  .838368864651D+00 -.747173979938D-08
    -.516807241382D-09  .100000000000D+01  .231600000000D+04  .000000000000D+00
     .240000000000D+01  .000000000000D+00 -.102445483208D-07  .510000000000D+02
     .720000000000D+04  .400000000000D+01
30 24  5 26  4  0  0.0 -.384571496397D-03  .602540239925D-11  .000000000000D+00
     .560000000000D+02 -.968750000000D+00  .562916304866D-08  .446217828638D+00
     .113621354103D-06  .714411656372D-02  .504963099957D-05  .515362777138D+04
     .144000000000D+05 -.186264514923D-08 -.111722502925D+01  .279396772385D-07
     .935060078148D+00  .265062500000D+03 -.246536820288D+01 -.854535594838D-08
    -.191793703263D-09  .100000000000D+01  .231600000000D+04  .000000000000D+00
     .240000000000D+01  .000000000000D+00  .419095158577D-08  .560000000000D+02
     .720000000000D+04  .400000000000D+01
29 24  5 26  4  0  0.0 -.596965197474D-03  .159161572810D-11  .000000000000D+00
     .113000000000D+03  .155156250000D+03  .401838166744D-08 -.281220686844D+01
     .799074769020D-05  .292405439541D-02  .584684312344D-05  .515359738922D+04
     .144000000000D+05  .745058059692D-08  .105133279392D+01  .223517417908D-07
     .971371101963D+00  .272625000000D+03  .254170843528D+01 -.787854245863D-08
     .117504894551D-09  .100000000000D+01  .231600000000D+04  .000000000000D+00
     .340000000000D+01  .000000000000D+00 -.977888703346D-08  .113000000000D+03
     .720000000000D+04  .400000000000D+01
21 24  5 26  4  0  0.0  .119409989566D-03 -.227373675443D-11  .000000000000D+00
     .760000000000D+02  .237187500000D+02  .437125350883D-08 -.297284083263D+01
     .156089663506D-05  .251562984195D-01 -.391155481339D-06  .515369147682D+04
     .144000000000D+05 -.160187482834D-06  .193219828331D+01  .314787030220D-06
     .961433416064D+00  .385437500000D+03 -.569749994500D+00 -.798176104381D-08
     .131076888450D-09  .100000000000D+01  .231600000000D+04  .000000000000D+00
     .240000000000D+01  .000000000000D+00 -.102445483208D-07  .760000000000D+02
     .720000000000D+04  .400000000000D+01
26 24  5 26  4  0  0.0  .147240702063D-03 -.591171556152D-11  .000000000000D+00
     .780000000000D+02  .223125000000D+02  .506128225129D-08 -.969941929015D+00
     .111199915409D-05  .887495267671D-02  .933371484280D-05  .515363965034D+04
     .144000000000D+05  .221654772758D-06 -.151336695552D+00 -.130385160446D-07
     .931513104528D+00  .184843750000D+03  .540666820280D+00 -.810283751571D-08
    -.710029575582D-09  .100000000000D+01  .231600000000D+04  .000000000000D+00
     .240000000000D+01  .000000000000D+00  .651925802231D-08  .780000000000D+02
     .720000000000D+04  .400000000000D+01
15 24  5 26  4  0  0.0  .163081567734D-03  .409272615798D-11  .000000000000D+00
     .960000000000D+02 -.537187500000D+02  .497306429095D-08  .250233736136D+01
    -.285916030407D-05  .156027133344D-01  .102426856756D-04  .515365753365D+04
     .144000000000D+05  .856816768646D-07 -.231846012316D+01 -.169500708580D-06
     .935314027561D+00  .166156250000D+03  .131111845499D+01 -.772425031746D-08
     .560380484954D-09  .100000000000D+01  .231600000000D+04  .000000000000D+00
     .240000000000D+01  .000000000000D+00 -.102445483208D-07  .960000000000D+02
     .720000000000D+04  .400000000000D+01
